*******************************************************************************
JPL/HORIZONS               Catalina (P/1999 XN120)         2023-Mar-07 08:53:28
Rec #:90002513 (+COV) Soln.date: 2021-Apr-15_23:30:03     # obs: 75 (1999-2000)
 
IAU76/J2000 helio. ecliptic osc. elements (au, days, deg., period=Julian yrs):
 
  EPOCH=  2451552.5 ! 2000-Jan-09.0000000 (TDB)    RMSW= n.a.
   EC= .2139062792844382   QR= 3.286320816340474   TP= 2451665.8346636244
   OM= 285.4698148804891   W= 161.7748703779777    IN= 5.028371372514552
   A= 4.180571259809857    MA= 346.9318717491215   ADIST= 5.074821703279239
   PER= 8.5479436029875    N= .115305661           ANGMOM= .034358089
   DAN= 5.00648            DDN= 3.31563            L= 87.31021440000001
   B= 1.5708097            MOID= 2.30281997        TP= 2000-May-01.3346636244
 
Comet physical (GM= km^3/s^2; RAD= km):
   GM= n.a.                RAD= n.a.
   M1=  9.9      M2=  13.7     k1=  10.    k2=  5.      PHCOF=  .030
 
COMET comments 
1: soln ref.= JPL#40, data arc: 1999-11-03 to 2000-03-30
2: k1=10., k2=5., phase coef.=0.03;
*******************************************************************************


*******************************************************************************
Ephemeris / WWW_USER Tue Mar  7 08:53:28 2023 Pasadena, USA      / Horizons    
*******************************************************************************
Target body name: Catalina (P/1999 XN120)         {source: JPL#40}
Center body name: Earth (399)                     {source: DE441}
Center-site name: (user defined site below)
*******************************************************************************
Start time      : A.D. 2001-Aug-10 00:00:00.0000 UT      
Stop  time      : A.D. 2011-Aug-10 00:00:00.0000 UT      
Step-size       : 21600 minutes
*******************************************************************************
Target pole/equ : undefined
Target radii    : undefined                                                    
Center geodetic : 286.0058, 40.7517, -2.02709E-12 {E-lon(deg),Lat(deg),Alt(km)}
Center cylindric: 286.0058, 4838.6361, 4141.57364 {E-lon(deg),Dxy(km),Dz(km)}
Center pole/equ : ITRF93                          {East-longitude positive}
Center radii    : 6378.137, 6378.137, 6356.752 km {Equator_a, b, pole_c}       
Target primary  : Sun
Vis. interferer : MOON (R_eq= 1737.400) km        {source: DE441}
Rel. light bend : Sun                             {source: DE441}
Rel. lght bnd GM: 1.3271E+11 km^3/s^2                                          
Small-body perts: Yes                             {source: SB441-N16}
Atmos refraction: NO (AIRLESS)
RA format       : HMS
Time format     : CAL 
Calendar mode   : Mixed Julian/Gregorian
EOP file        : eop.230306.p230529                                           
EOP coverage    : DATA-BASED 1962-JAN-20 TO 2023-MAR-06. PREDICTS-> 2023-MAY-28
Units conversion: 1 au= 149597870.700 km, c= 299792.458 km/s, 1 day= 86400.0 s 
Table cut-offs 1: Elevation (-90.0deg=NO ),Airmass (>38.000=NO), Daylight (NO )
Table cut-offs 2: Solar elongation (  0.0,180.0=NO ),Local Hour Angle( 0.0=NO )
Table cut-offs 3: RA/DEC angular rate (     0.0=NO )                           
Table format    : Comma Separated Values (spreadsheet)
*******************************************************************************
Initial IAU76/J2000 heliocentric ecliptic osculating elements (au, days, deg.):
  EPOCH=  2451552.5 ! 2000-Jan-09.0000000 (TDB)    RMSW= n.a.                  
   EC= .2139062792844382   QR= 3.286320816340474   TP= 2451665.8346636244      
   OM= 285.4698148804891   W= 161.7748703779777    IN= 5.028371372514552       
  Equivalent ICRF heliocentric cartesian coordinates (au, au/d):
   X= 1.304656928188019E+00  Y= 2.726922557064128E+00  Z= 1.380899813079959E+00
  VX=-9.721397168510011E-03 VY= 3.504830383889894E-03 VZ= 7.104962836741240E-04
Comet physical (GM= km^3/s^2; RAD= km):                                        
   GM= n.a.                RAD= n.a.                                           
   M1=  9.9      M2=  13.7     k1=  10.    k2=  5.      PHCOF=  .030           
*******************************************************************************
 Date__(UT)__HR:MN, , ,            delta,     deldot,  Tru_Anom,
****************************************************************
$$SOE
 2005-Feb-20 00:00,A,m, 5.71463277913866,-18.6501432,  195.2362,
 2005-Mar-07 00:00,A, , 5.53362937017917,-22.6870161,  196.4166,
 2005-Mar-22 00:00,N,m, 5.32200223345776,-25.7762442,  197.6005,
 2005-Apr-06 00:00,N, , 5.08905745860513,-27.7464038,  198.7886,
 2005-Apr-21 00:00,C,m, 4.84533251155258,-28.3547396,  199.9808,
 2005-May-06 00:00,C, , 4.60333296975967,-27.4918088,  201.1776,
 2005-May-21 00:00,*,m, 4.37667022068724,-24.9297952,  202.3791,
 2005-Jun-05 00:00,*, , 4.17994495600006,-20.7099921,  203.5857,
 2005-Jun-20 00:00,*,m, 4.02750274004882,-14.8488520,  204.7979,
 2005-Jul-05 00:00,*, , 3.93153557812547, -7.7809034,  206.0165,
 2005-Jul-20 00:00,*,m, 3.90032510879514, -0.0426077,  207.2413,
 2005-Aug-04 00:00,*, , 3.93574503422637,  7.5667783,  208.4726,
 2005-Aug-19 00:00,C,m, 4.03352358332232, 14.3172679,  209.7104,
 2005-Sep-03 00:00,N, , 4.18334829941194, 19.6909809,  210.9548,
 2005-Sep-18 00:00,N,m, 4.37181166160614, 23.3495163,  212.2063,
 2005-Oct-03 00:00,A, , 4.58381123878777, 25.3137494,  213.4653,
 2005-Oct-18 00:00, ,m, 4.80473311121937, 25.5856576,  214.7316,
 2005-Nov-02 00:00, , , 5.02109793175158, 24.4333020,  216.0056,
 2005-Nov-17 00:00, ,m, 5.22106001183502, 21.9695297,  217.2874,
 2005-Dec-02 00:00, , , 5.39480856716244, 18.4965845,  218.5776,
 2005-Dec-17 00:00, ,m, 5.53416469421734, 14.1678848,  219.8771,
 2006-Jan-01 00:00, , , 5.63325494007798,  9.2557444,  221.1864,
 2006-Jan-16 00:00, ,m, 5.68769043837873,  3.9528028,  222.5061,
 2006-Jan-31 00:00, , , 5.69544519041651, -1.5209748,  223.8365,
 2006-Feb-15 00:00,A, , 5.65584314336528, -6.9407925,  225.1781,
 2006-Mar-02 00:00,A,m, 5.57039398545519,-12.1538561,  226.5311,
 2006-Mar-17 00:00,N, , 5.44181772395507,-16.9198706,  227.8966,
 2006-Apr-01 00:00,N,m, 5.27466015663723,-21.1480998,  229.2747,
 2006-Apr-16 00:00,C, , 5.07463270910344,-24.5914777,  230.6654,
 2006-May-01 00:00,C,m, 4.84892232489699,-27.1872435,  232.0689,
 2006-May-16 00:00,*, , 4.60607358624734,-28.6782584,  233.4851,
 2006-May-31 00:00,*,m, 4.35593365165900,-28.9812094,  234.9143,
 2006-Jun-15 00:00,*, , 4.11007474728552,-27.8434089,  236.3574,
 2006-Jun-30 00:00,*,m, 3.88115670985895,-25.1639898,  237.8148,
 2006-Jul-15 00:00,*, , 3.68330180350704,-20.8288106,  239.2866,
 2006-Jul-30 00:00,*,m, 3.53018361818659,-14.9210725,  240.7733,
 2006-Aug-14 00:00,C, , 3.43411310189601, -7.8098919,  242.2755,
 2006-Aug-29 00:00,C,m, 3.40273249184974, -0.0654823,  243.7938,
 2006-Sep-13 00:00,N, , 3.43766092367243,  7.4266316,  245.3294,
 2006-Sep-28 00:00,A,m, 3.53339609148575, 13.9913851,  246.8829,
 2006-Oct-13 00:00, , , 3.67880527501072, 19.0021898,  248.4546,
 2006-Oct-28 00:00, ,m, 3.85964157256284, 22.3086968,  250.0449,
 2006-Nov-12 00:00, , , 4.06052730626288, 23.8481159,  251.6539,
 2006-Nov-27 00:00, ,m, 4.26725532935305, 23.8187030,  253.2823,
 2006-Dec-12 00:00, , , 4.46684920556296, 22.4174557,  254.9310,
 2006-Dec-27 00:00, ,m, 4.64883656732825, 19.8804416,  256.6002,
 2007-Jan-11 00:00, , , 4.80436075961925, 16.4745329,  258.2901,
 2007-Jan-26 00:00, ,m, 4.92703515905478, 12.3779166,  260.0011,
 2007-Feb-10 00:00, , , 5.01201074960548,  7.8712208,  261.7336,
 2007-Feb-25 00:00,A,m, 5.05649806956278,  3.0677728,  263.4884,
 2007-Mar-12 00:00,A, , 5.05911439786819, -1.7680549,  265.2668,
 2007-Mar-27 00:00,N,m, 5.01997962171014, -6.5760968,  267.0691,
 2007-Apr-11 00:00,N, , 4.94048111550718,-11.1304888,  268.8960,
 2007-Apr-26 00:00,C,m, 4.82294420538864,-15.4000632,  270.7481,
 2007-May-11 00:00,*, , 4.67088631108674,-19.2040766,  272.6257,
 2007-May-26 00:00,*,m, 4.48836827180234,-22.5020160,  274.5298,
 2007-Jun-10 00:00,*, , 4.28072680363258,-25.1473872,  276.4611,
 2007-Jun-25 00:00,*,m, 4.05378155554268,-27.0422089,  278.4198,
 2007-Jul-10 00:00,*, , 3.81493229357806,-28.0488714,  280.4059,
 2007-Jul-25 00:00,*,m, 3.57242538038631,-27.9686349,  282.4195,
 2007-Aug-09 00:00,*, , 3.33652884028922,-26.6537566,  284.4605,
 2007-Aug-24 00:00,C,m, 3.11887170313339,-23.8303113,  286.5294,
 2007-Sep-08 00:00,N, , 2.93285945726307,-19.4436725,  288.6266,
 2007-Sep-23 00:00,A,m, 2.79225731297799,-13.4367253,  290.7522,
 2007-Oct-08 00:00, , , 2.70915738112048, -6.2560630,  292.9062,
 2007-Oct-23 00:00, ,m, 2.69114101294100,  1.4692113,  295.0887,
 2007-Nov-07 00:00, , , 2.73829794428791,  8.7718296,  297.2997,
 2007-Nov-22 00:00, ,m, 2.84358787135217, 14.8892532,  299.5399,
 2007-Dec-07 00:00, , , 2.99408445396070, 19.3656422,  301.8098,
 2007-Dec-22 00:00, ,m, 3.17504945569493, 22.0694260,  304.1091,
 2008-Jan-06 00:00, , , 3.37163195883451, 23.1931026,  306.4378,
 2008-Jan-21 00:00, ,m, 3.57106976977571, 22.9010952,  308.7955,
 2008-Feb-05 00:00, , , 3.76261853456463, 21.5482175,  311.1816,
 2008-Feb-20 00:00,A,m, 3.93790534799692, 19.2876408,  313.5961,
 2008-Mar-06 00:00,A, , 4.09059108627849, 16.4334965,  316.0382,
 2008-Mar-21 00:00,N,m, 4.21597262767036, 13.0822397,  318.5071,
 2008-Apr-05 00:00,N, , 4.31103927932142,  9.4680143,  321.0018,
 2008-Apr-20 00:00,C,m, 4.37367819061927,  5.6523192,  323.5209,
 2008-May-05 00:00,C, , 4.40314848471577,  1.7864832,  326.0634,
 2008-May-20 00:00,*, , 4.39906297051791, -2.0753001,  328.6285,
 2008-Jun-04 00:00,*,m, 4.36215731739186, -5.8550991,  331.2149,
 2008-Jun-19 00:00,*, , 4.29323106984032, -9.4806532,  333.8213,
 2008-Jul-04 00:00,*,m, 4.19405110219852,-12.9273742,  336.4462,
 2008-Jul-19 00:00,*, , 4.06644732307491,-16.0837750,  339.0881,
 2008-Aug-03 00:00,*,m, 3.91318442729953,-18.9472142,  341.7453,
 2008-Aug-18 00:00,C, , 3.73740465839561,-21.3483480,  344.4164,
